STARLINK-36360          
1 68402U 26063Y   26192.85523252  .00018994  00000+0  58906-3 0  9990
2 68402  97.2866 334.7422 0000351  67.4001 292.7279 15.33452080 16929
STARLINK-37218          
1 68403U 26063Z   26192.84170761  .00011495  00000+0  31984-3 0  9999
2 68403  97.2846 337.6486 0000471 170.6721 189.4533 15.36986333 17112
STARLINK-37188          
1 68404U 26063AA  26192.83078378  .00010315  00000+0  32144-3 0  9999
2 68404  97.2852 334.7745 0000483 224.9857 135.1347 15.33440895 16926
SHIYAN-33               
1 68405U 26064A   26192.93827056  .00002934  00000+0  12340-3 0  9991
2 68405  97.4619 268.3425 0013048 213.9613 146.0790 15.24135110 16267
LPNTSAT-001 (IOD-1)     
1 68408U 26065A   26192.91809319  .00001406  00000+0  70972-4 0  9994
2 68408  97.3991  72.9026 0014638 279.1715  80.7864 15.18659053 16010
LPNTSAT-002 (IOD-2)     
1 68409U 26065B   26192.62462408  .00004024  00000+0  19215-3 0  9998
2 68409  97.3982  72.6689 0011859 275.1837  84.8044 15.19554733 15953
XINZHENGCHENG-01        
1 68412U 26066A   26192.56628005  .00000327  00000+0  31783-4 0  9990
2 68412  84.9650 212.2343 0026040 163.5282 196.6794 14.88429263 15354
XINZHENGCHENG 01        
1 68414U 26066C   26192.55318142  .00000554  00000+0  55768-4 0  9990
2 68414  84.9644 212.2216 0026632 164.2406 195.9653 14.88667445 15353
TIANSHI-01              
1 68415U 26066D   26192.55333323  .00000870  00000+0  89273-4 0  9998
2 68415  84.9647 212.2203 0026140 163.2424 196.9669 14.88766885 15352
TRANSPORTER-16 OBJECT A 
1 68416U 26067A   26192.85034939  .00003707  00000+0  17637-3 0  9990
2 68416  97.4550 151.1268 0002955 139.1151 221.0306 15.19786371 15696
JACK-002                
1 68417U 26067B   26192.85567939  .00003533  00000+0  16872-3 0  9999
2 68417  97.4573 151.1478 0002753 139.7268 220.4171 15.19689327 15692
OPTISAT                 
1 68418U 26067C   26192.87575156  .00002701  00000+0  13177-3 0  9993
2 68418  97.4593 151.1461 0002347 157.3478 202.7860 15.19157998 15697
FEMTO-1                 
1 68419U 26067D   26192.87683811  .00003021  00000+0  14732-3 0  9996
2 68419  97.4550 151.0859 0002588 131.2699 228.8759 15.19069768 15697
ERMIS-2                 
1 68420U 26067E   26192.84145140  .00005866  00000+0  27394-3 0  9990
2 68420  97.4479 151.0532 0003105 114.0094 246.1466 15.20194706 15692
VIREON-2                
1 68421U 26067F   26192.02860206  .00002722  00000+0  13330-3 0  9991
2 68421  97.4528 150.2002 0002451 115.2750 244.8739 15.19008797 15562
BRO-19                  
1 68422U 26067G   26192.82002889  .00002194  00000+0  10819-3 0  9997
2 68422  97.4491 150.9265 0002370 111.6700 248.4787 15.18975385 15686
SPOQC                   
1 68423U 26067H   26192.82030272  .00002881  00000+0  14063-3 0  9993
2 68423  97.4516 150.9605 0001976 111.3770 248.7675 15.19073211 15685
SPACEVAN-002            
1 68424U 26067J   26192.85911079  .00002077  00000+0  10426-3 0  9996
2 68424  97.4522 150.9302 0001337  25.8236 334.3065 15.18414937 15682
ERMIS-3                 
1 68425U 26067K   26192.82538424  .00003848  00000+0  18680-3 0  9990
2 68425  97.4595 151.0653 0000941 137.0634 223.0674 15.19062990 15681
TRANSPORTER-16 OBJECT L 
1 68426U 26067L   26192.84886596  .00006493  00000+0  30235-3 0  9998
2 68426  97.4547 151.1291 0000937 127.1525 232.9795 15.20256532 15695
EMISAR                  
1 68427U 26067M   26192.93171536  .00004800  00000+0  22760-3 0  9994
2 68427  97.4553 151.1752 0000895 127.1572 232.9745 15.19762372 15709
OUT OF THE BOX (OOTB)   
1 68428U 26067N   26192.84111156  .00002334  00000+0  11590-3 0  9996
2 68428  97.4584 151.0238 0000338  94.2879 265.8394 15.18667186 15686
TROOP-F3                
1 68429U 26067P   26192.86765279  .00006850  00000+0  31997-3 0  9990
2 68429  97.4510 151.0559 0001225  23.9503 336.1789 15.20127118 15691
VEGAFLY-1               
1 68430U 26067Q   26190.31170073  .00005836  00000+0  27914-3 0  9999
2 68430  97.4495 148.4910 0001641  96.6596 263.4825 15.19365849 15301
DISCO-2                 
1 68431U 26067R   26192.88145204  .00004752  00000+0  22743-3 0  9993
2 68431  97.4606 151.1622 0000315 151.1665 208.9587 15.19441092 15694
NUSAT-53 (JANE GOODALL) 
1 68432U 26067S   26192.84173684  .00003439  00000+0  16846-3 0  9991
2 68432  97.4567 151.0055 0001022   1.1271 358.9966 15.18828266 15680
T.MICROSAT-2            
1 68433U 26067T   26192.85382944  .00002894  00000+0  14716-3 0  9992
2 68433  97.4576 150.8541 0005233 357.5432   2.5775 15.17629877 15678
VIREON-1                
1 68434U 26067U   26192.30465103  .00001785  00000+0  89067-4 0  9992
2 68434  97.4596 150.5297 0000579 136.9626 223.1654 15.18795208 15601
ION SCV-019 (ASTOUNDIN*)
1 68435U 26067V   26192.88456949  .00002369  00000+0  11331-3 0  9991
2 68435  97.4556 151.0870 0008197 318.7075  41.3539 15.19950414 15697
HAWK-14B                
1 68436U 26067W   26192.86352280  .00002345  00000+0  11725-3 0  9994
2 68436  97.4557 150.9619 0001958   8.6338 351.4929 15.18414665 15682
