OBJECT_NAME,OBJECT_ID,EPOCH,MEAN_MOTION,ECCENTRICITY,INCLINATION,RA_OF_ASC_NODE,ARG_OF_PERICENTER,MEAN_ANOMALY,EPHEMERIS_TYPE,CLASSIFICATION_TYPE,NORAD_CAT_ID,ELEMENT_SET_NO,REV_AT_EPOCH,BSTAR,MEAN_MOTION_DOT,MEAN_MOTION_DDOT
STARLINK-36360,2026-063Y,2026-07-11T20:31:32.089728,15.33452080,.00003516,97.2866,334.7422,67.4001,292.7279,0,U,68402,999,1692,.58905877E-3,.18994E-3,0
STARLINK-37218,2026-063Z,2026-07-11T20:12:03.537504,15.36986333,.00004719,97.2846,337.6486,170.6721,189.4533,0,U,68403,999,1711,.3198373E-3,.11495E-3,0
STARLINK-37188,2026-063AA,2026-07-11T19:56:19.718592,15.33440895,.00004834,97.2852,334.7745,224.9857,135.1347,0,U,68404,999,1692,.32143586E-3,.10315E-3,0
SHIYAN-33,2026-064A,2026-07-11T22:31:06.576384,15.24135110,.00130483,97.4619,268.3425,213.9613,146.0790,0,U,68405,999,1626,.12339952E-3,.2934E-4,0
LPNTSAT-001 (IOD-1),2026-065A,2026-07-11T22:02:03.251616,15.18659053,.00146384,97.3991,72.9026,279.1715,80.7864,0,U,68408,999,1601,.70971733E-4,.1406E-4,0
LPNTSAT-002 (IOD-2),2026-065B,2026-07-11T14:59:27.520512,15.19554733,.00118593,97.3982,72.6689,275.1837,84.8044,0,U,68409,999,1595,.19214782E-3,.4024E-4,0
XINZHENGCHENG-01,2026-066A,2026-07-11T13:35:26.596320,14.88429263,.00260403,84.9650,212.2343,163.5282,196.6794,0,U,68412,999,1535,.31783407E-4,.327E-5,0
XINZHENGCHENG 01,2026-066C,2026-07-11T13:16:34.874688,14.88667445,.00266322,84.9644,212.2216,164.2406,195.9653,0,U,68414,999,1535,.55767615E-4,.554E-5,0
TIANSHI-01,2026-066D,2026-07-11T13:16:47.991072,14.88766885,.00261401,84.9647,212.2203,163.2424,196.9669,0,U,68415,999,1535,.89272788E-4,.87E-5,0
TRANSPORTER-16 OBJECT A,2026-067A,2026-07-11T20:24:30.187296,15.19786371,.00029554,97.4550,151.1268,139.1151,221.0306,0,U,68416,999,1569,.17636704E-3,.3707E-4,0
JACK-002,2026-067B,2026-07-11T20:32:10.699296,15.19689327,.0002753,97.4573,151.1478,139.7268,220.4171,0,U,68417,999,1569,.16872089E-3,.3533E-4,0
OPTISAT,2026-067C,2026-07-11T21:01:04.934784,15.19157998,.00023472,97.4593,151.1461,157.3478,202.7860,0,U,68418,999,1569,.13176685E-3,.2701E-4,0
FEMTO-1,2026-067D,2026-07-11T21:02:38.812704,15.19069768,.00025888,97.4550,151.0859,131.2699,228.8759,0,U,68419,999,1569,.14732101E-3,.3021E-4,0
ERMIS-2,2026-067E,2026-07-11T20:11:41.400960,15.20194706,.0003105,97.4479,151.0532,114.0094,246.1466,0,U,68420,999,1569,.27393879E-3,.5866E-4,0
VIREON-2,2026-067F,2026-07-11T00:41:11.217984,15.19008797,.00024512,97.4528,150.2002,115.2750,244.8739,0,U,68421,999,1556,.1332957E-3,.2722E-4,0
BRO-19,2026-067G,2026-07-11T19:40:50.496096,15.18975385,.00023702,97.4491,150.9265,111.6700,248.4787,0,U,68422,999,1568,.10818936E-3,.2194E-4,0
SPOQC,2026-067H,2026-07-11T19:41:14.155008,15.19073211,.00019766,97.4516,150.9605,111.3770,248.7675,0,U,68423,999,1568,.1406294E-3,.2881E-4,0
SPACEVAN-002,2026-067J,2026-07-11T20:37:07.172256,15.18414937,.00013376,97.4522,150.9302,25.8236,334.3065,0,U,68424,999,1568,.10425722E-3,.2077E-4,0
ERMIS-3,2026-067K,2026-07-11T19:48:33.198336,15.19062990,.00009418,97.4595,151.0653,137.0634,223.0674,0,U,68425,999,1568,.18679795E-3,.3848E-4,0
TRANSPORTER-16 OBJECT L,2026-067L,2026-07-11T20:22:22.018944,15.20256532,.00009371,97.4547,151.1291,127.1525,232.9795,0,U,68426,999,1569,.30235327E-3,.6493E-4,0
EMISAR,2026-067M,2026-07-11T22:21:40.207104,15.19762372,.00008957,97.4553,151.1752,127.1572,232.9745,0,U,68427,999,1570,.22760469E-3,.48E-4,0
OUT OF THE BOX (OOTB),2026-067N,2026-07-11T20:11:12.038784,15.18667186,.00003386,97.4584,151.0238,94.2879,265.8394,0,U,68428,999,1568,.11590172E-3,.2334E-4,0
TROOP-F3,2026-067P,2026-07-11T20:49:25.201056,15.20127118,.00012258,97.4510,151.0559,23.9503,336.1789,0,U,68429,999,1569,.31997007E-3,.685E-4,0
VEGAFLY-1,2026-067Q,2026-07-09T07:28:50.943072,15.19365849,.00016414,97.4495,148.4910,96.6596,263.4825,0,U,68430,999,1530,.27913634E-3,.5836E-4,0
DISCO-2,2026-067R,2026-07-11T21:09:17.456256,15.19441092,.00003155,97.4606,151.1622,151.1665,208.9587,0,U,68431,999,1569,.22742981E-3,.4752E-4,0
NUSAT-53 (JANE GOODALL),2026-067S,2026-07-11T20:12:06.062976,15.18828266,.00010225,97.4567,151.0055,1.1271,358.9966,0,U,68432,999,1568,.1684605E-3,.3439E-4,0
T.MICROSAT-2,2026-067T,2026-07-11T20:29:30.863616,15.17629877,.00052334,97.4576,150.8541,357.5432,2.5775,0,U,68433,999,1567,.14715884E-3,.2894E-4,0
VIREON-1,2026-067U,2026-07-11T07:18:41.848992,15.18795208,.00005792,97.4596,150.5297,136.9626,223.1654,0,U,68434,999,1560,.89066807E-4,.1785E-4,0
ION SCV-019 (ASTOUNDING ALEXANDRA),2026-067V,2026-07-11T21:13:46.803936,15.19950414,.00081971,97.4556,151.0870,318.7075,41.3539,0,U,68435,999,1569,.11331224E-3,.2369E-4,0
HAWK-14B,2026-067W,2026-07-11T20:43:28.369920,15.18414665,.00019586,97.4557,150.9619,8.6338,351.4929,0,U,68436,999,1568,.11724804E-3,.2345E-4,0
